start=new Date('2023-01-24T00:00:00.000Z').valueOf();
sats=[{"ECCENTRICITY":"0.00019390","LAUNCH_DATE":"2021-03-24","PERIAPSIS":"545.896","CENTER_NAME":"EARTH","ARG_OF_PERICENTER":"86.6758","EPOCH":"2023-01-23T14:14:38.323104","DECAY_DATE":null,"RCS_SIZE":"LARGE","SITE":"AFETR","MEAN_MOTION_DOT":"0.00006053","ELEMENT_SET_NO":"999","SEMIMAJOR_AXIS":"6925.374","EPHEMERIS_TYPE":"0","TLE_LINE1":"1 48020U 21024AV  23023.59349911  .00006053  00000-0  42502-3 0  9994","MEAN_ELEMENT_THEORY":"SGP4","RA_OF_ASC_NODE":"349.6064","OBJECT_ID":"2021-024AV","MEAN_MOTION":"15.06391825","INCLINATION":"53.0526","MEAN_ANOMALY":"273.4453","REV_AT_EPOCH":"10301","COUNTRY_CODE":"US","OBJECT_TYPE":"PAYLOAD","APOAPSIS":"548.581","TLE_LINE2":"2 48020  53.0526 349.6064 0001939  86.6758 273.4453 15.06391825103014","OBJECT_NAME":"STARLINK-2294","BSTAR":"0.00042502000000","CLASSIFICATION_TYPE":"U","FILE":"3759090","NORAD_CAT_ID":"48020","MEAN_MOTION_DDOT":"0.0000000000000","TIME_SYSTEM":"UTC","REF_FRAME":"TEME","GP_ID":"223619275","PERIOD":"95.593"},{"FILE":"3758477","NORAD_CAT_ID":"48021","BSTAR":"0.00038216000000","CLASSIFICATION_TYPE":"U","MEAN_MOTION_DDOT":"0.0000000000000","REF_FRAME":"TEME","TIME_SYSTEM":"UTC","PERIOD":"95.592","GP_ID":"223605794","REV_AT_EPOCH":"10286","COUNTRY_CODE":"US","TLE_LINE2":"2 48021  53.0535 357.1262 0001514  87.3417 272.7745 15.06400983102862","OBJECT_TYPE":"PAYLOAD","APOAPSIS":"548.259","OBJECT_NAME":"STARLINK-2301","TLE_LINE1":"1 48021U 21024AW  23022.94241499  .00005415  00000-0  38216-3 0  9993","MEAN_MOTION_DOT":"0.00005415","EPHEMERIS_TYPE":"0","SEMIMAJOR_AXIS":"6925.346","ELEMENT_SET_NO":"999","MEAN_ELEMENT_THEORY":"SGP4","MEAN_MOTION":"15.06400983","INCLINATION":"53.0535","OBJECT_ID":"2021-024AW","RA_OF_ASC_NODE":"357.1262","MEAN_ANOMALY":"272.7745","LAUNCH_DATE":"2021-03-24","PERIAPSIS":"546.162","CENTER_NAME":"EARTH","ECCENTRICITY":"0.00015140","EPOCH":"2023-01-22T22:37:04.655136","ARG_OF_PERICENTER":"87.3417","SITE":"AFETR","DECAY_DATE":null,"RCS_SIZE":"LARGE"},{"ECCENTRICITY":"0.00017300","CENTER_NAME":"EARTH","LAUNCH_DATE":"2021-03-24","PERIAPSIS":"546.019","DECAY_DATE":null,"RCS_SIZE":"LARGE","SITE":"AFETR","ARG_OF_PERICENTER":"95.4957","EPOCH":"2023-01-23T12:01:15.046176","MEAN_ELEMENT_THEORY":"SGP4","ELEMENT_SET_NO":"999","SEMIMAJOR_AXIS":"6925.352","EPHEMERIS_TYPE":"0","MEAN_MOTION_DOT":"0.00001015","TLE_LINE1":"1 48022U 21024AX  23023.50086859  .00001015  00000-0  87057-4 0  9994","MEAN_ANOMALY":"264.6229","OBJECT_ID":"2021-024AX","RA_OF_ASC_NODE":"54.8948","INCLINATION":"53.0534","MEAN_MOTION":"15.06398832","APOAPSIS":"548.415","OBJECT_TYPE":"PAYLOAD","TLE_LINE2":"2 48022  53.0534  54.8948 0001730  95.4957 264.6229 15.06398832102094","COUNTRY_CODE":"US","REV_AT_EPOCH":"10209","OBJECT_NAME":"STARLINK-2298","MEAN_MOTION_DDOT":"0.0000000000000","CLASSIFICATION_TYPE":"U","BSTAR":"0.00008705700000","NORAD_CAT_ID":"48022","FILE":"3758754","GP_ID":"223612298","PERIOD":"95.592","REF_FRAME":"TEME","TIME_SYSTEM":"UTC"},{"NORAD_CAT_ID":"48023","FILE":"3758754","CLASSIFICATION_TYPE":"U","BSTAR":"0.00024667000000","MEAN_MOTION_DDOT":"0.0000000000000","REF_FRAME":"TEME","TIME_SYSTEM":"UTC","PERIOD":"95.592","GP_ID":"223612297","REV_AT_EPOCH":"10209","COUNTRY_CODE":"US","TLE_LINE2":"2 48023  53.0528  54.6695 0001639  99.3210 260.7964 15.06403446102099","APOAPSIS":"548.338","OBJECT_TYPE":"PAYLOAD","OBJECT_NAME":"STARLINK-2292","TLE_LINE1":"1 48023U 21024AY  23023.48977562  .00003395  00000-0  24667-3 0  9992","SEMIMAJOR_AXIS":"6925.338","ELEMENT_SET_NO":"999","EPHEMERIS_TYPE":"0","MEAN_MOTION_DOT":"0.00003395","MEAN_ELEMENT_THEORY":"SGP4","INCLINATION":"53.0528","MEAN_MOTION":"15.06403446","RA_OF_ASC_NODE":"54.6695","OBJECT_ID":"2021-024AY","MEAN_ANOMALY":"260.7964","CENTER_NAME":"EARTH","PERIAPSIS":"546.068","LAUNCH_DATE":"2021-03-24","ECCENTRICITY":"0.00016390","EPOCH":"2023-01-23T11:45:16.613568","ARG_OF_PERICENTER":"99.3210","DECAY_DATE":null,"RCS_SIZE":"LARGE","SITE":"AFETR"},{"DECAY_DATE":null,"RCS_SIZE":"LARGE","SITE":"AFETR","ARG_OF_PERICENTER":"91.2296","EPOCH":"2023-01-23T03:17:43.662624","ECCENTRICITY":"0.00017970","CENTER_NAME":"EARTH","LAUNCH_DATE":"2021-03-24","PERIAPSIS":"546.008","MEAN_ANOMALY":"268.8899","OBJECT_ID":"2021-024BB","RA_OF_ASC_NODE":"61.2525","INCLINATION":"53.0545","MEAN_MOTION":"15.06387176","MEAN_ELEMENT_THEORY":"SGP4","ELEMENT_SET_NO":"999","SEMIMAJOR_AXIS":"6925.388","EPHEMERIS_TYPE":"0","MEAN_MOTION_DOT":"0.00004799","TLE_LINE1":"1 48026U 21024BB  23023.13731091  .00004799  00000-0  34096-3 0  9998","OBJECT_NAME":"STARLINK-2278","APOAPSIS":"548.497","OBJECT_TYPE":"PAYLOAD","TLE_LINE2":"2 48026  53.0545  61.2525 0001797  91.2296 268.8899 15.06387176101969","COUNTRY_CODE":"US","REV_AT_EPOCH":"10196","GP_ID":"223605801","PERIOD":"95.593","TIME_SYSTEM":"UTC","REF_FRAME":"TEME","MEAN_MOTION_DDOT":"0.0000000000000","CLASSIFICATION_TYPE":"U","BSTAR":"0.00034096000000","FILE":"3758478","NORAD_CAT_ID":"48026"},{"REV_AT_EPOCH":"10241","COUNTRY_CODE":"US","TLE_LINE2":"2 48027  53.0558  33.4441 0001764  96.7580 263.3610 15.06389923102416","APOAPSIS":"548.466","OBJECT_TYPE":"PAYLOAD","OBJECT_NAME":"STARLINK-2300","FILE":"3759159","NORAD_CAT_ID":"48027","CLASSIFICATION_TYPE":"U","BSTAR":"0.00109650000000","MEAN_MOTION_DDOT":"0.0000000000000","TIME_SYSTEM":"UTC","REF_FRAME":"TEME","PERIOD":"95.593","GP_ID":"223620564","CENTER_NAME":"EARTH","PERIAPSIS":"546.023","LAUNCH_DATE":"2021-03-24","ECCENTRICITY":"0.00017640","EPOCH":"2023-01-23T18:15:24.104160","ARG_OF_PERICENTER":"96.7580","DECAY_DATE":null,"SITE":"AFETR","RCS_SIZE":"LARGE","TLE_LINE1":"1 48027U 21024BC  23023.76069565  .00016084  00000-0  10965-2 0  9996","SEMIMAJOR_AXIS":"6925.379","ELEMENT_SET_NO":"999","EPHEMERIS_TYPE":"0","MEAN_MOTION_DOT":"0.00016084","MEAN_ELEMENT_THEORY":"SGP4","INCLINATION":"53.0558","MEAN_MOTION":"15.06389923","RA_OF_ASC_NODE":"33.4441","OBJECT_ID":"2021-024BC","MEAN_ANOMALY":"263.3610"},{"COUNTRY_CODE":"US","REV_AT_EPOCH":"10301","TLE_LINE2":"2 48028  53.0542 349.5160 0002602  81.3922 278.7362 15.06399212103014","APOAPSIS":"549.018","OBJECT_TYPE":"PAYLOAD","OBJECT_NAME":"STARLINK-2264","FILE":"3759090","NORAD_CAT_ID":"48028","CLASSIFICATION_TYPE":"U","BSTAR":"0.00166420000000","MEAN_MOTION_DDOT":"0.0000000000000","TIME_SYSTEM":"UTC","REF_FRAME":"TEME","PERIOD":"95.592","GP_ID":"223619764","CENTER_NAME":"EARTH","LAUNCH_DATE":"2021-03-24","PERIAPSIS":"545.414","ECCENTRICITY":"0.00026020","EPOCH":"2023-01-23T14:41:10.802112","ARG_OF_PERICENTER":"81.3922","DECAY_DATE":null,"SITE":"AFETR","RCS_SIZE":"LARGE","TLE_LINE1":"1 48028U 21024BD  23023.61193058  .00024594  00000-0  16642-2 0  9999","SEMIMAJOR_AXIS":"6925.351","EPHEMERIS_TYPE":"0","ELEMENT_SET_NO":"999","MEAN_MOTION_DOT":"0.00024594","MEAN_ELEMENT_THEORY":"SGP4","INCLINATION":"53.0542","MEAN_MOTION":"15.06399212","OBJECT_ID":"2021-024BD","RA_OF_ASC_NODE":"349.5160","MEAN_ANOMALY":"278.7362"},{"LAUNCH_DATE":"2021-03-24","PERIAPSIS":"546.384","CENTER_NAME":"EARTH","ECCENTRICITY":"0.00011990","EPOCH":"2023-01-20T11:34:08.886720","ARG_OF_PERICENTER":"69.8970","RCS_SIZE":"LARGE","DECAY_DATE":null,"SITE":"AFETR","TLE_LINE1":"1 48029U 21024BE  23020.48204730  .00020883  00000-0  14167-2 0  9999","MEAN_MOTION_DOT":"0.00020883","ELEMENT_SET_NO":"999","SEMIMAJOR_AXIS":"6925.349","EPHEMERIS_TYPE":"0","MEAN_ELEMENT_THEORY":"SGP4","MEAN_MOTION":"15.06399826","INCLINATION":"53.0559","RA_OF_ASC_NODE":"68.1620","OBJECT_ID":"2021-024BE","MEAN_ANOMALY":"290.2148","REV_AT_EPOCH":"10217","COUNTRY_CODE":"US","TLE_LINE2":"2 48029  53.0559  68.1620 0001199  69.8970 290.2148 15.06399826102170","OBJECT_TYPE":"PAYLOAD","APOAPSIS":"548.044","OBJECT_NAME":"STARLINK-2299","NORAD_CAT_ID":"48029","FILE":"3755973","BSTAR":"0.00141670000000","CLASSIFICATION_TYPE":"U","MEAN_MOTION_DDOT":"0.0000000000000","REF_FRAME":"TEME","TIME_SYSTEM":"UTC","PERIOD":"95.592","GP_ID":"223544715"},{"REF_FRAME":"TEME","TIME_SYSTEM":"UTC","PERIOD":"95.593","GP_ID":"223605811","FILE":"3758479","NORAD_CAT_ID":"48030","BSTAR":"0.00011079000000","CLASSIFICATION_TYPE":"U","MEAN_MOTION_DDOT":"0.0000000000000","OBJECT_NAME":"STARLINK-2268","REV_AT_EPOCH":"10196","COUNTRY_CODE":"US","TLE_LINE2":"2 48030  53.0531  61.4377 0001896  90.4700 269.6506 15.06390364101964","OBJECT_TYPE":"PAYLOAD","APOAPSIS":"548.556","MEAN_MOTION":"15.06390364","INCLINATION":"53.0531","OBJECT_ID":"2021-024BF","RA_OF_ASC_NODE":"61.4377","MEAN_ANOMALY":"269.6506","TLE_LINE1":"1 48030U 21024BF  23023.09676801  .00001369  00000-0  11079-3 0  9991","MEAN_MOTION_DOT":"0.00001369","ELEMENT_SET_NO":"999","SEMIMAJOR_AXIS":"6925.378","EPHEMERIS_TYPE":"0","MEAN_ELEMENT_THEORY":"SGP4","EPOCH":"2023-01-23T02:19:20.756064","ARG_OF_PERICENTER":"90.4700","DECAY_DATE":null,"RCS_SIZE":"LARGE","SITE":"AFETR","PERIAPSIS":"545.930","LAUNCH_DATE":"2021-03-24","CENTER_NAME":"EARTH","ECCENTRICITY":"0.00018960"},{"PERIAPSIS":"546.164","LAUNCH_DATE":"2021-03-24","CENTER_NAME":"EARTH","ECCENTRICITY":"0.00015440","RCS_SIZE":"LARGE","DECAY_DATE":null,"SITE":"AFETR","EPOCH":"2023-01-23T19:09:48.598560","ARG_OF_PERICENTER":"102.4281","MEAN_ELEMENT_THEORY":"SGP4","TLE_LINE1":"1 48031U 21024BG  23023.79847915  .00007222  00000-0  50332-3 0  9994","MEAN_MOTION_DOT":"0.00007222","ELEMENT_SET_NO":"999","SEMIMAJOR_AXIS":"6925.368","EPHEMERIS_TYPE":"0","MEAN_ANOMALY":"257.6881","MEAN_MOTION":"15.06393628","INCLINATION":"53.0554","OBJECT_ID":"2021-024BG","RA_OF_ASC_NODE":"303.2836","TLE_LINE2":"2 48031  53.0554 303.2836 0001544 102.4281 257.6881 15.06393628103685","OBJECT_TYPE":"PAYLOAD","APOAPSIS":"548.302","REV_AT_EPOCH":"10368","COUNTRY_CODE":"US","OBJECT_NAME":"STARLINK-2267","MEAN_MOTION_DDOT":"0.0000000000000","NORAD_CAT_ID":"48031","FILE":"3759137","BSTAR":"0.00050332000000","CLASSIFICATION_TYPE":"U","PERIOD":"95.593","GP_ID":"223619276","TIME_SYSTEM":"UTC","REF_FRAME":"TEME"}];
